[{"OBJECT_NAME":"STARLINK-31971","OBJECT_ID":"2024-106N","EPOCH":"2026-03-09T03:18:33.766848","MEAN_MOTION":15.27576691,"ECCENTRICITY":0.00012285,"INCLINATION":43.0017,"RA_OF_ASC_NODE":332.4416,"ARG_OF_PERICENTER":272.0986,"MEAN_ANOMALY":87.9725,"EPHEMERIS_TYPE":0,"CLASSIFICATION_TYPE":"U","NORAD_CAT_ID":59934,"ELEMENT_SET_NO":999,"REV_AT_EPOCH":10035,"BSTAR":-4.1123542e-5,"MEAN_MOTION_DOT":-1.393e-5,"MEAN_MOTION_DDOT":0},{"OBJECT_NAME":"OBJECT H","OBJECT_ID":"2025-155H","EPOCH":"2026-03-09T22:09:58.611456","MEAN_MOTION":15.27590961,"ECCENTRICITY":0.00081993,"INCLINATION":97.4482,"RA_OF_ASC_NODE":37.3122,"ARG_OF_PERICENTER":152.0629,"MEAN_ANOMALY":208.1051,"EPHEMERIS_TYPE":0,"CLASSIFICATION_TYPE":"U","NORAD_CAT_ID":64883,"ELEMENT_SET_NO":999,"REV_AT_EPOCH":6559,"BSTAR":0.00050403256,"MEAN_MOTION_DOT":0.00013547,"MEAN_MOTION_DDOT":0}]
